STARLINK-32384          
1 62146U 24224H   26068.26429507  .00032344  00000+0  11798-2 0  9993
2 62146  42.9979 160.6213 0001056 249.8965 110.1773 15.27577303 72419
FLOCK 4G-5              
1 62663U 25009BG  26068.45638436  .00011278  00000+0  40688-3 0  9997
2 62663  97.4058 151.2478 0002094 314.5072  45.5996 15.28679529 63699
